[{"OBJECT_NAME":"STARLINK-5819","OBJECT_ID":"2023-028AR","EPOCH":"2026-03-09T20:46:13.421568","MEAN_MOTION":14.98332198,"ECCENTRICITY":0.00027975,"INCLINATION":69.9999,"RA_OF_ASC_NODE":223.8414,"ARG_OF_PERICENTER":270.8149,"MEAN_ANOMALY":89.269,"EPHEMERIS_TYPE":0,"CLASSIFICATION_TYPE":"U","NORAD_CAT_ID":55780,"ELEMENT_SET_NO":999,"REV_AT_EPOCH":16656,"BSTAR":4.1584442e-5,"MEAN_MOTION_DOT":4.03e-6,"MEAN_MOTION_DDOT":0},{"OBJECT_NAME":"DELTA 1 DEB","OBJECT_ID":"1977-065DL","EPOCH":"2026-03-09T05:03:29.284704","MEAN_MOTION":13.58952222,"ECCENTRICITY":0.06330817,"INCLINATION":28.7836,"RA_OF_ASC_NODE":97.9522,"ARG_OF_PERICENTER":253.7759,"MEAN_ANOMALY":169.3549,"EPHEMERIS_TYPE":0,"CLASSIFICATION_TYPE":"U","NORAD_CAT_ID":10314,"ELEMENT_SET_NO":999,"REV_AT_EPOCH":34572,"BSTAR":0.0019577614,"MEAN_MOTION_DOT":5.734e-5,"MEAN_MOTION_DDOT":0}]
